[{"OBJECT_NAME":"STARLINK-6275","OBJECT_ID":"2023-078F","EPOCH":"2026-03-09T22:18:42.353568","MEAN_MOTION":14.98336233,"ECCENTRICITY":0.00028002,"INCLINATION":70.0016,"RA_OF_ASC_NODE":3.8295,"ARG_OF_PERICENTER":261.6536,"MEAN_ANOMALY":98.4306,"EPHEMERIS_TYPE":0,"CLASSIFICATION_TYPE":"U","NORAD_CAT_ID":56772,"ELEMENT_SET_NO":999,"REV_AT_EPOCH":15222,"BSTAR":-0.00017523289,"MEAN_MOTION_DOT":-2.183e-5,"MEAN_MOTION_DDOT":0},{"OBJECT_NAME":"HAWK-10B","OBJECT_ID":"2024-149CF","EPOCH":"2026-03-09T22:24:07.674624","MEAN_MOTION":14.96175068,"ECCENTRICITY":0.00063882,"INCLINATION":97.6865,"RA_OF_ASC_NODE":146.0046,"ARG_OF_PERICENTER":71.247,"MEAN_ANOMALY":288.9444,"EPHEMERIS_TYPE":0,"CLASSIFICATION_TYPE":"U","NORAD_CAT_ID":60545,"ELEMENT_SET_NO":999,"REV_AT_EPOCH":8514,"BSTAR":0.00020768682,"MEAN_MOTION_DOT":2.283e-5,"MEAN_MOTION_DDOT":0}]
